{
  "type": "FeatureCollection",
  "features": [
    {
      "type": "Feature",
      "properties": {
        "norad_id": 34366,
        "name": "IRIDIUM 33 DEB",
        "group": "iridium-33-debris",
        "lat": -69.90385484400488,
        "lon": 33.24608796054787,
        "alt_km": 735.3573279655284,
        "timestamp": "2025-12-26T16:33:55.955824+00:00",
        "meta_object_name": "IRIDIUM 33 DEB",
        "meta_object_id": "1997-051FJ",
        "meta_epoch": "2025-12-26T03:56:31.227648",
        "meta_mean_motion": 14.54157583,
        "meta_eccentricity": 0.00230515,
        "meta_inclination": 86.3679,
        "meta_ra_of_asc_node": 43.4727,
        "meta_arg_of_pericenter": 98.1181,
        "meta_mean_anomaly": 320.0434,
        "meta_ephemeris_type": 0,
        "meta_classification_type": "U",
        "meta_norad_cat_id": 34366,
        "meta_element_set_no": 999,
        "meta_rev_at_epoch": 88377,
        "meta_bstar": 0.00085396715,
        "meta_mean_motion_dot": 3.644e-05,
        "meta_mean_motion_ddot": 0,
        "tle_line1": "1 34366U 97051FJ  25360.16425032  .00003644  00000+0  85397-3 0  9994",
        "tle_line2": "2 34366  86.3679  43.4727 0023051  98.1181 320.0434 14.54157583883771"
      },
      "geometry": {
        "type": "Point",
        "coordinates": [
          33.24608796054787,
          -69.90385484400488
        ]
      }
    },
    {
      "type": "Feature",
      "properties": {
        "norad_id": 34375,
        "name": "IRIDIUM 33 DEB",
        "group": "iridium-33-debris",
        "lat": -15.530147950578106,
        "lon": -1.9285971008657354,
        "alt_km": 864.7049246640736,
        "timestamp": "2025-12-26T16:33:55.955833+00:00",
        "meta_object_name": "IRIDIUM 33 DEB",
        "meta_object_id": "1997-051FT",
        "meta_epoch": "2025-12-25T12:52:34.268736",
        "meta_mean_motion": 14.18014941,
        "meta_eccentricity": 0.0103685,
        "meta_inclination": 86.4324,
        "meta_ra_of_asc_node": 177.5431,
        "meta_arg_of_pericenter": 86.7144,
        "meta_mean_anomaly": 341.7037,
        "meta_ephemeris_type": 0,
        "meta_classification_type": "U",
        "meta_norad_cat_id": 34375,
        "meta_element_set_no": 999,
        "meta_rev_at_epoch": 86893,
        "meta_bstar": 0.00040149,
        "meta_mean_motion_dot": 8.86e-06,
        "meta_mean_motion_ddot": 0,
        "tle_line1": "1 34375U 97051FT  25359.53650774  .00000886  00000+0  40149-3 0  9997",
        "tle_line2": "2 34375  86.4324 177.5431 0103685  86.7144 341.7037 14.18014941868934"
      },
      "geometry": {
        "type": "Point",
        "coordinates": [
          -1.9285971008657354,
          -15.530147950578106
        ]
      }
    },
    {
      "type": "Feature",
      "properties": {
        "norad_id": 34376,
        "name": "IRIDIUM 33 DEB",
        "group": "iridium-33-debris",
        "lat": -73.38096970446792,
        "lon": -12.259527300900375,
        "alt_km": 711.2010787133413,
        "timestamp": "2025-12-26T16:33:55.955843+00:00",
        "meta_object_name": "IRIDIUM 33 DEB",
        "meta_object_id": "1997-051FU",
        "meta_epoch": "2025-12-26T00:29:09.701088",
        "meta_mean_motion": 14.62749123,
        "meta_eccentricity": 0.00285873,
        "meta_inclination": 86.2985,
        "meta_ra_of_asc_node": 0.5681,
        "meta_arg_of_pericenter": 123.3286,
        "meta_mean_anomaly": 237.0669,
        "meta_ephemeris_type": 0,
        "meta_classification_type": "U",
        "meta_norad_cat_id": 34376,
        "meta_element_set_no": 999,
        "meta_rev_at_epoch": 88201,
        "meta_bstar": 0.0014873429,
        "meta_mean_motion_dot": 7.648e-05,
        "meta_mean_motion_ddot": 0,
        "tle_line1": "1 34376U 97051FU  25360.02025117  .00007648  00000+0  14873-2 0  9998",
        "tle_line2": "2 34376  86.2985   0.5681 0028587 123.3286 237.0669 14.62749123882019"
      },
      "geometry": {
        "type": "Point",
        "coordinates": [
          -12.259527300900375,
          -73.38096970446792
        ]
      }
    },
    {
      "type": "Feature",
      "properties": {
        "norad_id": 34486,
        "name": "IRIDIUM 33 DEB",
        "group": "iridium-33-debris",
        "lat": 19.537574730825188,
        "lon": 6.86418943178985,
        "alt_km": 572.29614114779,
        "timestamp": "2025-12-26T16:33:55.955852+00:00",
        "meta_object_name": "IRIDIUM 33 DEB",
        "meta_object_id": "1997-051GB",
        "meta_epoch": "2025-12-26T00:39:56.499264",
        "meta_mean_motion": 14.96400313,
        "meta_eccentricity": 0.00139183,
        "meta_inclination": 86.3935,
        "meta_ra_of_asc_node": 5.8877,
        "meta_arg_of_pericenter": 74.4824,
        "meta_mean_anomaly": 338.8012,
        "meta_ephemeris_type": 0,
        "meta_classification_type": "U",
        "meta_norad_cat_id": 34486,
        "meta_element_set_no": 999,
        "meta_rev_at_epoch": 89185,
        "meta_bstar": 0.0021412617,
        "meta_mean_motion_dot": 0.00024383,
        "meta_mean_motion_ddot": 0,
        "tle_line1": "1 34486U 97051GB  25360.02773726  .00024383  00000+0  21413-2 0  9999",
        "tle_line2": "2 34486  86.3935   5.8877 0013918  74.4824 338.8012 14.96400313891854"
      },
      "geometry": {
        "type": "Point",
        "coordinates": [
          6.86418943178985,
          19.537574730825188
        ]
      }
    },
    {
      "type": "Feature",
      "properties": {
        "norad_id": 34487,
        "name": "IRIDIUM 33 DEB",
        "group": "iridium-33-debris",
        "lat": -82.50001022944991,
        "lon": -144.56465705502015,
        "alt_km": 778.9846692270903,
        "timestamp": "2025-12-26T16:33:55.955861+00:00",
        "meta_object_name": "IRIDIUM 33 DEB",
        "meta_object_id": "1997-051GC",
        "meta_epoch": "2025-12-26T00:37:21.163296",
        "meta_mean_motion": 14.43232747,
        "meta_eccentricity": 0.00332617,
        "meta_inclination": 86.3429,
        "meta_ra_of_asc_node": 6.6563,
        "meta_arg_of_pericenter": 87.1121,
        "meta_mean_anomaly": 327.0907,
        "meta_ephemeris_type": 0,
        "meta_classification_type": "U",
        "meta_norad_cat_id": 34487,
        "meta_element_set_no": 999,
        "meta_rev_at_epoch": 88440,
        "meta_bstar": 0.00018559814,
        "meta_mean_motion_dot": 6.49e-06,
        "meta_mean_motion_ddot": 0,
        "tle_line1": "1 34487U 97051GC  25360.02593939  .00000649  00000+0  18560-3 0  9995",
        "tle_line2": "2 34487  86.3429   6.6563 0033261  87.1121 327.0907 14.43232747884400"
      },
      "geometry": {
        "type": "Point",
        "coordinates": [
          -144.56465705502015,
          -82.50001022944991
        ]
      }
    },
    {
      "type": "Feature",
      "properties": {
        "norad_id": 34488,
        "name": "IRIDIUM 33 DEB",
        "group": "iridium-33-debris",
        "lat": -39.63564228559264,
        "lon": -64.16543987879484,
        "alt_km": 470.956651679513,
        "timestamp": "2025-12-26T16:33:55.955871+00:00",
        "meta_object_name": "IRIDIUM 33 DEB",
        "meta_object_id": "1997-051GD",
        "meta_epoch": "2025-12-25T20:22:16.973184",
        "meta_mean_motion": 15.32823177,
        "meta_eccentricity": 0.00085439,
        "meta_inclination": 86.325,
        "meta_ra_of_asc_node": 299.3053,
        "meta_arg_of_pericenter": 30.257,
        "meta_mean_anomaly": 329.9171,
        "meta_ephemeris_type": 0,
        "meta_classification_type": "U",
        "meta_norad_cat_id": 34488,
        "meta_element_set_no": 999,
        "meta_rev_at_epoch": 89440,
        "meta_bstar": 0.0046585997,
        "meta_mean_motion_dot": 0.00150449,
        "meta_mean_motion_ddot": 0,
        "tle_line1": "1 34488U 97051GD  25359.84880756  .00150449  00000+0  46586-2 0  9992",
        "tle_line2": "2 34488  86.3250 299.3053 0008543  30.2570 329.9171 15.32823177894407"
      },
      "geometry": {
        "type": "Point",
        "coordinates": [
          -64.16543987879484,
          -39.63564228559264
        ]
      }
    },
    {
      "type": "Feature",
      "properties": {
        "norad_id": 34492,
        "name": "IRIDIUM 33 DEB",
        "group": "iridium-33-debris",
        "lat": -22.2772566651132,
        "lon": 150.43700663681935,
        "alt_km": 676.8158429004561,
        "timestamp": "2025-12-26T16:33:55.955880+00:00",
        "meta_object_name": "IRIDIUM 33 DEB",
        "meta_object_id": "1997-051GH",
        "meta_epoch": "2025-12-24T21:39:21.521088",
        "meta_mean_motion": 14.25932668,
        "meta_eccentricity": 0.0188786,
        "meta_inclination": 86.473,
        "meta_ra_of_asc_node": 329.7114,
        "meta_arg_of_pericenter": 198.6425,
        "meta_mean_anomaly": 190.963,
        "meta_ephemeris_type": 0,
        "meta_classification_type": "U",
        "meta_norad_cat_id": 34492,
        "meta_element_set_no": 999,
        "meta_rev_at_epoch": 85232,
        "meta_bstar": 0.0029502,
        "meta_mean_motion_dot": 8.501e-05,
        "meta_mean_motion_ddot": 0,
        "tle_line1": "1 34492U 97051GH  25358.90233242  .00008501  00000+0  29502-2 0  9995",
        "tle_line2": "2 34492  86.4730 329.7114 0188786 198.6425 190.9630 14.25932668852326"
      },
      "geometry": {
        "type": "Point",
        "coordinates": [
          150.43700663681935,
          -22.2772566651132
        ]
      }
    }
  ]
}